[{"OBJECT_NAME":"DAMPE","OBJECT_ID":"2015-078A","EPOCH":"2026-03-09T23:55:00.527232","MEAN_MOTION":15.30502084,"ECCENTRICITY":0.00138005,"INCLINATION":97.4588,"RA_OF_ASC_NODE":73.9866,"ARG_OF_PERICENTER":70.6942,"MEAN_ANOMALY":289.579,"EPHEMERIS_TYPE":0,"CLASSIFICATION_TYPE":"U","NORAD_CAT_ID":41173,"ELEMENT_SET_NO":999,"REV_AT_EPOCH":56937,"BSTAR":9.1158173e-5,"MEAN_MOTION_DOT":2.617e-5,"MEAN_MOTION_DDOT":0},{"OBJECT_NAME":"STARLINK-35470","OBJECT_ID":"2025-259J","EPOCH":"2026-03-09T22:51:18.565344","MEAN_MOTION":15.27596823,"ECCENTRICITY":0.00014858,"INCLINATION":43.0046,"RA_OF_ASC_NODE":272.6763,"ARG_OF_PERICENTER":275.1198,"MEAN_ANOMALY":84.9484,"EPHEMERIS_TYPE":0,"CLASSIFICATION_TYPE":"U","NORAD_CAT_ID":66430,"ELEMENT_SET_NO":999,"REV_AT_EPOCH":1953,"BSTAR":0.001211249,"MEAN_MOTION_DOT":0.00033236,"MEAN_MOTION_DDOT":0}]
